[{"OBJECT_NAME":"STARLINK-32574","OBJECT_ID":"2024-209R","EPOCH":"2026-03-09T12:03:30.835008","MEAN_MOTION":15.30145109,"ECCENTRICITY":0.00013976,"INCLINATION":53.1579,"RA_OF_ASC_NODE":143.5983,"ARG_OF_PERICENTER":64.0304,"MEAN_ANOMALY":296.0841,"EPHEMERIS_TYPE":0,"CLASSIFICATION_TYPE":"U","NORAD_CAT_ID":61954,"ELEMENT_SET_NO":999,"REV_AT_EPOCH":7488,"BSTAR":0.0012954537,"MEAN_MOTION_DOT":0.0003814,"MEAN_MOTION_DDOT":0},{"OBJECT_NAME":"SL-3 R\/B","OBJECT_ID":"1982-027B","EPOCH":"2026-03-09T22:44:40.208640","MEAN_MOTION":15.28335844,"ECCENTRICITY":0.00065199,"INCLINATION":81.188,"RA_OF_ASC_NODE":37.4466,"ARG_OF_PERICENTER":276.581,"MEAN_ANOMALY":83.4683,"EPHEMERIS_TYPE":0,"CLASSIFICATION_TYPE":"U","NORAD_CAT_ID":13121,"ELEMENT_SET_NO":999,"REV_AT_EPOCH":39859,"BSTAR":0.00030526741,"MEAN_MOTION_DOT":8.453e-5,"MEAN_MOTION_DDOT":0}]
